1 45390U 20019AG  23251.42135139  .00009570  00000-0  66028-3 0  9990
2 45390  53.0531 286.4407 0001350  80.5823 279.5318 15.06410045192357
1 45390U 20019AG  23251.42135139  .00009570  00000-0  66028-3 0  9990
2 45390  53.0531 286.4407 0001350  80.5823 279.5318 15.06410045192357
1 45390U 20019AG  23251.81943528  .00000485  00000-0  51456-4 0  9998
2 45390  53.0530 284.6528 0001402  93.2627 266.8523 15.06394622192417
1 45390U 20019AG  23251.81943528  .00000485  00000-0  51456-4 0  9998
2 45390  53.0530 284.6528 0001402  93.2627 266.8523 15.06394622192417
1 45390U 20019AG  23252.48290368  .00005512  00000-0  38862-3 0  9990
2 45390  53.0531 281.6754 0001437  84.2862 275.8291 15.06403869192512
1 45390U 20019AG  23252.81463782  .00013383  00000-0  91544-3 0  9990
2 45390  53.0530 280.1861 0001449  87.3444 272.7711 15.06407751192569
1 45390U 20019AG  23253.47809860  .00011930  00000-0  81797-3 0  9999
2 45390  53.0533 277.2071 0001467  88.7366 271.3791 15.06421679192669
1 45390U 20019AG  23254.07522250 -.00001012  00000-0 -49067-4 0  9998
2 45390  53.0543 274.5269 0001545  93.3666 266.7500 15.06400308192753
1 45390U 20019AG  23254.53965229  .00006583  00000-0  46042-3 0  9991
2 45390  53.0537 272.4419 0001502  96.4950 263.6209 15.06399189192827
1 45390U 20019AG  23255.07041911  .00015046  00000-0  10261-2 0  9991
2 45390  53.0530 270.0597 0001411  92.7282 267.3868 15.06426270192900
1 45390U 20019AG  23255.40214716  .00020227  00000-0  13715-2 0  9997
2 45390  53.0534 268.5701 0001332  92.1784 267.9358 15.06438593192952
1 45390U 20019AG  23255.73388435  .00001786  00000-0  13871-3 0  9996
2 45390  53.0535 267.0814 0001976  88.4292 271.6923 15.06413801193000
1 45390U 20019AG  23255.73388435  .00001786  00000-0  13871-3 0  9996
2 45390  53.0535 267.0814 0001976  88.4292 271.6923 15.06413801193000
1 45390U 20019AG  23256.33100907  .00021143  00000-0  14342-2 0  9991
2 45390  53.0522 264.4016 0001362  82.3033 277.8111 15.06395409193095
1 45390U 20019AG  23256.46370361  .00021705  00000-0  14718-2 0  9999
2 45390  53.0525 263.8051 0001453  80.8277 279.2876 15.06393525193118
1 45390U 20019AG  23256.99447752  .00011752  00000-0  80647-3 0  9992
2 45390  53.0532 261.4231 0001514  86.5065 273.6097 15.06403208193197
1 45390U 20019AG  23257.39255433  .00011355  00000-0  77970-3 0  9994
2 45390  53.0525 259.6361 0001453  86.6047 273.5109 15.06414140193252
1 45390U 20019AG  23257.72429081  .00001988  00000-0  15229-3 0  9993
2 45390  53.0527 258.1442 0001509  94.8822 265.2340 15.06399465193305
1 45390U 20019AG  23257.72429081  .00001988  00000-0  15229-3 0  9993
2 45390  53.0527 258.1442 0001509  94.8822 265.2340 15.06399465193305
1 45390U 20019AG  23258.38776792  .00001018  00000-0  87225-4 0  9990
2 45390  53.0525 255.1665 0001422  94.7173 265.3978 15.06389857193402
1 45390U 20019AG  23258.38776792  .00001018  00000-0  87225-4 0  9990
2 45390  53.0525 255.1665 0001422  94.7173 265.3978 15.06389857193402
1 45390U 20019AG  23259.25027905  .00015329  00000-0  10455-2 0  9991
2 45390  53.0526 251.2946 0001422  97.2727 262.8424 15.06407637193534
1 45390U 20019AG  23259.25027905  .00015329  00000-0  10455-2 0  9991
2 45390  53.0526 251.2946 0001422  97.2727 262.8424 15.06407637193534
1 45390U 20019AG  23259.71471102  .00006147  00000-0  43124-3 0  9992
2 45390  53.0530 249.2098 0001797  83.1920 276.9273 15.06399546193603
1 45390U 20019AG  23260.24549000  .00002075  00000-0  15819-3 0  9991
2 45390  53.0533 246.8278 0001439  93.7087 266.4067 15.06391237193685
1 45390U 20019AG  23260.44453080  .00003880  00000-0  27927-3 0  9993
2 45390  53.0531 245.9336 0001442  97.2439 262.8714 15.06396444193710
1 45390U 20019AG  23261.10799303  .00006308  00000-0  44186-3 0  9992
2 45390  53.0528 242.9544 0001447 102.5856 257.5295 15.06411103193818
1 45390U 20019AG  23261.43972216  .00008014  00000-0  55601-3 0  9994
2 45390  53.0530 241.4662 0001463  93.1213 266.9943 15.06419765193867
1 45390U 20019AG  23262.10320184  .00002432  00000-0  18211-3 0  9994
2 45390  53.0535 238.4875 0001587  90.8088 269.3083 15.06398194193960
1 45390U 20019AG  23262.36858209  .00014542  00000-0  99268-3 0  9992
2 45390  53.0534 237.2959 0001480 103.0092 257.1063 15.06417114194006
1 45390U 20019AG  23263.16474712  .00004900  00000-0  34767-3 0  9994
2 45390  53.0533 233.7220 0001219  77.5364 282.5761 15.06394948194123
1 45390U 20019AG  23263.43013868  .00002137  00000-0  16243-3 0  9994
2 45390  53.0537 232.5301 0001340  95.1160 264.9982 15.06379863194161
1 45390U 20019AG  23263.43013868  .00002137  00000-0  16243-3 0  9994
2 45390  53.0537 232.5301 0001340  95.1160 264.9982 15.06379863194161
1 45390U 20019AG  23263.62918651  .00008822  00000-0  61097-3 0  9993
2 45390  53.0536 231.6365 0001490  85.3982 274.7177 15.06363816194198
1 45390U 20019AG  23263.62918651  .00008822  00000-0  61097-3 0  9993
2 45390  53.0536 231.6365 0001490  85.3982 274.7177 15.06363816194198
1 45390U 20019AG  23264.42536362  .00010640  00000-0  73255-3 0  9997
2 45390  53.0531 228.0624 0001488  86.4720 273.6439 15.06377916194319
1 45390U 20019AG  23265.15517621  .00017533  00000-0  11926-2 0  9999
2 45390  53.0532 224.7859 0001499  87.5067 272.6093 15.06412625194425
1 45390U 20019AG  23265.88499365  .00011165  00000-0  76703-3 0  9993
2 45390  53.0526 221.5113 0001622  74.0882 286.0286 15.06411031194535
1 45390U 20019AG  23266.08403296  .00012107  00000-0  83002-3 0  9991
2 45390  53.0532 220.6156 0001313  93.0423 267.0716 15.06410998194569
1 45390U 20019AG  23266.28307345  .00007611  00000-0  52918-3 0  9997
2 45390  53.0528 219.7221 0001381  87.5658 272.5489 15.06406828194597
1 45390U 20019AG  23266.28307345  .00007611  00000-0  52918-3 0  9997
2 45390  53.0528 219.7221 0001381  87.5658 272.5489 15.06406828194597
1 45390U 20019AG  23267.14556102  .00023744  00000-0  16052-2 0  9993
2 45390  53.0529 215.8503 0001402  87.0573 273.0577 15.06454741194729
1 45390U 20019AG  23267.27824910  .00023084  00000-0  15610-2 0  9998
2 45390  53.0529 215.2546 0001400  87.7477 272.3673 15.06460879194748
1 45390U 20019AG  23267.87537923 -.00005806  00000-0 -37121-3 0  9995
2 45390  53.0534 212.5753 0000668  70.6909 289.4152 15.06398133194834
1 45390U 20019AG  23268.27346433  .00046328  00000-0  31076-2 0  9998
2 45390  53.0534 210.7885 0001483 108.7887 251.3263 15.06413626194896
1 45390U 20019AG  23268.53884814  .00033899  00000-0  22823-2 0  9996
2 45390  53.0537 209.5973 0001574 113.7593 246.3561 15.06423064194931
1 45390U 20019AG  23268.53884814  .00033899  00000-0  22823-2 0  9996
2 45390  53.0537 209.5973 0001574 113.7593 246.3561 15.06423064194931
1 45390U 20019AG  23269.13597397  .00003918  00000-0  28186-3 0  9998
2 45390  53.0532 206.9161 0001478 101.8304 258.2850 15.06391312195021
1 45390U 20019AG  23270.13119760  .00013221  00000-0  90529-3 0  9992
2 45390  53.0533 202.4496 0001650  71.0988 289.0180 15.06380414195177
1 45390U 20019AG  23270.52927626  .00019843  00000-0  13471-2 0  9999
2 45390  53.0530 200.6627 0001396  93.6764 266.4385 15.06404279195238
1 45390U 20019AG  23270.52927626  .00019843  00000-0  13471-2 0  9999
2 45390  53.0530 200.6627 0001396  93.6764 266.4385 15.06404279195238
1 45390U 20019AG  23271.12638324  .00022519  00000-0  15240-2 0  9990
2 45390  53.0536 197.9814 0001436  93.8002 266.3151 15.06445157195322
1 45390U 20019AG  23271.78985975  .00018878  00000-0  12827-2 0  9990
2 45390  53.0537 195.0028 0001512  86.5318 273.5844 15.06404028195425
1 45390U 20019AG  23272.12160096  .00026641  00000-0  18016-2 0  9991
2 45390  53.0537 193.5134 0001399  46.7911 313.3195 15.06380180195475
1 45390U 20019AG  23272.25429756  .00022543  00000-0  15278-2 0  9990
2 45390  53.0542 192.9162 0002080  27.7952 332.3148 15.06391484195497
1 45390U 20019AG  23273.05044521  .00035859  00000-0  24109-2 0  9999
2 45390  53.0540 189.3437 0001465  74.5987 285.5164 15.06448572195616
1 45390U 20019AG  23273.05044521  .00035859  00000-0  24109-2 0  9999
2 45390  53.0540 189.3437 0001465  74.5987 285.5164 15.06448572195616
1 45390U 20019AG  23273.78026614  .00020529  00000-0  13929-2 0  9998
2 45390  53.0535 186.0641 0001562  94.9727 265.1440 15.06405058195722
1 45390U 20019AG  23274.17835501  .00030624  00000-0  20668-2 0  9990
2 45390  53.0546 184.2796 0001459  98.8296 261.2859 15.06382928195781
1 45390U 20019AG  23274.44374235  .00035443  00000-0  23862-2 0  9995
2 45390  53.0542 183.0897 0001499 104.2045 255.9110 15.06403306195823
1 45390U 20019AG  23274.90816110  .00035795  00000-0  24071-2 0  9992
2 45390  53.0543 181.0050 0001518 107.9339 252.1815 15.06440914195895
1 45390U 20019AG  23275.04085037  .00035839  00000-0  24094-2 0  9998
2 45390  53.0540 180.4094 0001495 108.8691 251.2460 15.06450622195914
1 45390U 20019AG  23275.43892812 -.00017282  00000-0 -11439-2 0  9991
2 45390  53.0540 178.6218 0001602  89.3199 270.7974 15.06406471195972
1 45390U 20019AG  23275.77067125  .00000113  00000-0  26499-4 0  9996
2 45390  53.0535 177.1337 0002640  96.8784 263.2505 15.06389376196026
1 45390U 20019AG  23276.16876146  .00031545  00000-0  21283-2 0  9998
2 45390  53.0529 175.3463 0001391  89.0378 271.0770 15.06380267196081
1 45390U 20019AG  23276.43415023  .00032657  00000-0  22013-2 0  9998
2 45390  53.0526 174.1549 0001357  89.7192 270.3952 15.06396983196124
1 45390U 20019AG  23276.89857224  .00035246  00000-0  23713-2 0  9996
2 45390  53.0523 172.0696 0001306  91.2319 268.8820 15.06431087196192
1 45390U 20019AG  23277.42934580  .00008562  00000-0  59276-3 0  9992
2 45390  53.0518 169.6865 0001964  73.0327 287.0877 15.06413674196279
1 45390U 20019AG  23277.42934580  .00008562  00000-0  59276-3 0  9992
2 45390  53.0518 169.6865 0001964  73.0327 287.0877 15.06413674196279
1 45390U 20019AG  23277.89377651  .00029669  00000-0  20019-2 0  9996
2 45390  53.0523 167.6018 0001219  73.9455 286.1668 15.06407434196340
1 45390U 20019AG  23277.96012233  .00036291  00000-0  24419-2 0  9993
2 45390  53.0523 167.3041 0001004  97.9895 262.1208 15.06413296196357
